{
  "norad_id": 61529,
  "name": "STARLINK-32351",
  "history": [
    {
      "epoch": "2026-03-28T15:12:32.548320Z",
      "apogee_km": 476.1868420198916,
      "perigee_km": 474.265159034544,
      "latitude_deg": 4.989789127755137e-05,
      "longitude_deg": -2.6173297765366117,
      "height_km": 476.1096582620847,
      "semi_major_axis_km": 6853.363000527218,
      "eccentricity": 0.0001402,
      "inclination_deg": 53.162,
      "raan_deg": 51.5696,
      "arg_perigee_deg": 89.1388,
      "mean_anomaly_deg": 270.9774,
      "mean_motion_rev_day": 15.30196339
    },
    {
      "epoch": "2026-03-29T03:44:58.075872Z",
      "apogee_km": 476.22354261832425,
      "perigee_km": 474.2305843486629,
      "latitude_deg": 5.881505905150907e-05,
      "longitude_deg": 166.3341950767717,
      "height_km": 476.1596883221539,
      "semi_major_axis_km": 6853.364063483493,
      "eccentricity": 0.0001454,
      "inclination_deg": 53.162,
      "raan_deg": 49.1425,
      "arg_perigee_deg": 91.9898,
      "mean_anomaly_deg": 268.127,
      "mean_motion_rev_day": 15.30195983
    },
    {
      "epoch": "2026-03-30T03:15:46.573344Z",
      "apogee_km": 476.27534770574493,
      "perigee_km": 474.20823159521115,
      "latitude_deg": -3.5586062464996196e-05,
      "longitude_deg": 168.1158885734122,
      "height_km": 476.3029037428406,
      "semi_major_axis_km": 6853.378789650477,
      "eccentricity": 0.00015081,
      "inclination_deg": 53.1624,
      "raan_deg": 44.592,
      "arg_perigee_deg": 99.0787,
      "mean_anomaly_deg": 261.0384,
      "mean_motion_rev_day": 15.30191051
    },
    {
      "epoch": "2026-03-30T14:14:09.110400Z",
      "apogee_km": 476.22431297221283,
      "perigee_km": 474.26931670519207,
      "latitude_deg": 4.295826848062965e-05,
      "longitude_deg": 0.9479011173115915,
      "height_km": 476.28846929871315,
      "semi_major_axis_km": 6853.383814838702,
      "eccentricity": 0.00014263,
      "inclination_deg": 53.1631,
      "raan_deg": 42.4685,
      "arg_perigee_deg": 98.439,
      "mean_anomaly_deg": 261.6773,
      "mean_motion_rev_day": 15.30189368
    },
    {
      "epoch": "2026-03-30T20:30:21.556224Z",
      "apogee_km": 476.20470054717043,
      "perigee_km": 474.25642521639475,
      "latitude_deg": -2.602955763679857e-05,
      "longitude_deg": -94.57521240886837,
      "height_km": 476.3536920929794,
      "semi_major_axis_km": 6853.367562881783,
      "eccentricity": 0.00014214,
      "inclination_deg": 53.1645,
      "raan_deg": 41.2548,
      "arg_perigee_deg": 103.338,
      "mean_anomaly_deg": 256.7779,
      "mean_motion_rev_day": 15.30194811
    },
    {
      "epoch": "2026-03-31T05:54:40.534272Z",
      "apogee_km": 476.1129152833064,
      "perigee_km": 474.3337829366774,
      "latitude_deg": 1.9770516969828025e-05,
      "longitude_deg": 122.13938624096686,
      "height_km": 476.2114305264377,
      "semi_major_axis_km": 6853.360349109991,
      "eccentricity": 0.0001298,
      "inclination_deg": 53.1624,
      "raan_deg": 39.4347,
      "arg_perigee_deg": 95.7927,
      "mean_anomaly_deg": 264.3222,
      "mean_motion_rev_day": 15.30197227
    },
    {
      "epoch": "2026-04-01T13:15:44.899200Z",
      "apogee_km": 476.09441417535254,
      "perigee_km": 474.39066402193293,
      "latitude_deg": -1.4870781743646032e-05,
      "longitude_deg": 4.516026428010765,
      "height_km": 476.14666924572464,
      "semi_major_axis_km": 6853.379539098642,
      "eccentricity": 0.0001243,
      "inclination_deg": 53.1625,
      "raan_deg": 33.3671,
      "arg_perigee_deg": 90.3868,
      "mean_anomaly_deg": 269.7275,
      "mean_motion_rev_day": 15.301908
    },
    {
      "epoch": "2026-04-02T12:46:32.474784Z",
      "apogee_km": 476.06659033120013,
      "perigee_km": 474.3698366474455,
      "latitude_deg": 3.134247345856824e-05,
      "longitude_deg": 6.302576733546235,
      "height_km": 476.1166479799699,
      "semi_major_axis_km": 6853.3552134893225,
      "eccentricity": 0.00012379,
      "inclination_deg": 53.1629,
      "raan_deg": 28.8175,
      "arg_perigee_deg": 90.0006,
      "mean_anomaly_deg": 270.1137,
      "mean_motion_rev_day": 15.30198947
    },
    {
      "epoch": "2026-04-03T18:33:33.945984Z",
      "apogee_km": 476.60097478035823,
      "perigee_km": 473.9322594118603,
      "latitude_deg": -6.220589594996327e-05,
      "longitude_deg": -87.43869751112126,
      "height_km": 475.83286702897635,
      "semi_major_axis_km": 6853.403617096109,
      "eccentricity": 0.0001947,
      "inclination_deg": 53.1613,
      "raan_deg": 23.0556,
      "arg_perigee_deg": 75.6327,
      "mean_anomaly_deg": 284.4889,
      "mean_motion_rev_day": 15.30182736
    },
    {
      "epoch": "2026-04-04T11:48:08.029440Z",
      "apogee_km": 475.668105929738,
      "perigee_km": 474.7367371023529,
      "latitude_deg": -7.21566434754627e-06,
      "longitude_deg": 9.873591899399235,
      "height_km": 476.0110749022484,
      "semi_major_axis_km": 6853.339421516045,
      "eccentricity": 6.795e-05,
      "inclination_deg": 53.1601,
      "raan_deg": 19.718,
      "arg_perigee_deg": 78.8267,
      "mean_anomaly_deg": 281.281,
      "mean_motion_rev_day": 15.30204236
    },
    {
      "epoch": "2026-04-05T11:18:57.609504Z",
      "apogee_km": 476.0064809696214,
      "perigee_km": 474.5572570155837,
      "latitude_deg": 2.218581791716373e-05,
      "longitude_deg": 11.65205256405571,
      "height_km": 476.21946826833954,
      "semi_major_axis_km": 6853.418868992602,
      "eccentricity": 0.00010573,
      "inclination_deg": 53.1617,
      "raan_deg": 15.1687,
      "arg_perigee_deg": 93.0903,
      "mean_anomaly_deg": 267.0219,
      "mean_motion_rev_day": 15.30177628
    }
  ]
}